[
    {
        "Altitude(m)": 612502.23811995,
        "Argument of Periapsis(deg)": 0.0,
        "Eccentricity": 0.0,
        "Inclination(deg)": 60.0,
        "Latitude(deg)": -28.136113930907563,
        "Longitude(deg)": -27.851706243438276,
        "Mean Anomaly(deg)": -32.72730000000001,
        "RAAN(deg)": 90.0,
        "Satellite Name": "Test1 416",
        "Satellite Number": 416,
        "Semi-Major Axis(m)": 6980739.136638005,
        "Time(s)": 0
    },
    {
        "Altitude(m)": 612308.6853215809,
        "Argument of Periapsis(deg)": 0.00010418945913296404,
        "Eccentricity": 0.0,
        "Inclination(deg)": 60.0,
        "Latitude(deg)": -27.623168729092583,
        "Longitude(deg)": -27.49823259558258,
        "Mean Anomaly(deg)": -32.10719385453817,
        "RAAN(deg)": 89.99957995086027,
        "Satellite Name": "Test1 416",
        "Satellite Number": 416,
        "Semi-Major Axis(m)": 6980739.136638005,
        "Time(s)": 10
    },
    {
        "Altitude(m)": 612116.101418062,
        "Argument of Periapsis(deg)": 0.0002083789182659281,
        "Eccentricity": 0.0,
        "Inclination(deg)": 60.0,
        "Latitude(deg)": -27.109054665683033,
        "Longitude(deg)": -27.148410123872896,
        "Mean Anomaly(deg)": -31.48708770907638,
        "RAAN(deg)": 89.99915990172052,
        "Satellite Name": "Test1 416",
        "Satellite Number": 416,
        "Semi-Major Axis(m)": 6980739.136638005,
        "Time(s)": 20
    },
    {
        "Altitude(m)": 611924.5559962931,
        "Argument of Periapsis(deg)": 0.00031256837739889213,
        "Eccentricity": 0.0,
        "Inclination(deg)": 60.0,
        "Latitude(deg)": -26.593806056119675,
        "Longitude(deg)": -26.802134411299072,
        "Mean Anomaly(deg)": -30.86698156361449,
        "RAAN(deg)": 89.99873985258078,
        "Satellite Name": "Test1 416",
        "Satellite Number": 416,
        "Semi-Major Axis(m)": 6980739.136638005,
        "Time(s)": 30
    },
    {
        "Altitude(m)": 611734.1180365593,
        "Argument of Periapsis(deg)": 0.0004167578365318562,
        "Eccentricity": 0.0,
        "Inclination(deg)": 60.0,
        "Latitude(deg)": -26.077456366494008,
        "Longitude(deg)": -26.45930275847156,
        "Mean Anomaly(deg)": -30.2468754181527,
        "RAAN(deg)": 89.99831980344103,
        "Satellite Name": "Test1 416",
        "Satellite Number": 416,
        "Semi-Major Axis(m)": 6980739.136638005,
        "Time(s)": 40
    },
    {
        "Altitude(m)": 611544.8558820367,
        "Argument of Periapsis(deg)": 0.0005209472956648203,
        "Eccentricity": 0.0,
        "Inclination(deg)": 60.0,
        "Latitude(deg)": -25.560038245951738,
        "Longitude(deg)": -26.119815128361125,
        "Mean Anomaly(deg)": -29.626769272690858,
        "RAAN(deg)": 89.9978997543013,
        "Satellite Name": "Test1 416",
        "Satellite Number": 416,
        "Semi-Major Axis(m)": 6980739.136638005,
        "Time(s)": 50
    },
    {
        "Altitude(m)": 611356.8372085571,
        "Argument of Periapsis(deg)": 0.0006251367547977843,
        "Eccentricity": 0.0,
        "Inclination(deg)": 60.0,
        "Latitude(deg)": -25.041583557990883,
        "Longitude(deg)": -25.783573578918666,
        "Mean Anomaly(deg)": -29.006663127229018,
        "RAAN(deg)": 89.99747970516154,
        "Satellite Name": "Test1 416",
        "Satellite Number": 416,
        "Semi-Major Axis(m)": 6980739.136638005,
        "Time(s)": 60
    },
    {
        "Altitude(m)": 611170.128994672,
        "Argument of Periapsis(deg)": 0.0007293262139307483,
        "Eccentricity": 0.0,
        "Inclination(deg)": 60.0,
        "Latitude(deg)": -24.52212341069343,
        "Longitude(deg)": -25.450481696507776,
        "Mean Anomaly(deg)": -28.38655698176718,
        "RAAN(deg)": 89.9970596560218,
        "Satellite Name": "Test1 416",
        "Satellite Number": 416,
        "Semi-Major Axis(m)": 6980739.136638005,
        "Time(s)": 70
    },
    {
        "Altitude(m)": 610984.7974920513,
        "Argument of Periapsis(deg)": 0.0008335156730637124,
        "Eccentricity": 0.0,
        "Inclination(deg)": 60.0,
        "Latitude(deg)": -24.001688185930792,
        "Longitude(deg)": -25.120445543074975,
        "Mean Anomaly(deg)": -27.76645083630539,
        "RAAN(deg)": 89.99663960688206,
        "Satellite Name": "Test1 416",
        "Satellite Number": 416,
        "Semi-Major Axis(m)": 6980739.136638005,
        "Time(s)": 80
    },
    {
        "Altitude(m)": 610800.9081961814,
        "Argument of Periapsis(deg)": 0.0009377051321966765,
        "Eccentricity": 0.0,
        "Inclination(deg)": 60.0,
        "Latitude(deg)": -23.4803075675751,
        "Longitude(deg)": -24.793373091351828,
        "Mean Anomaly(deg)": -27.14634469084355,
        "RAAN(deg)": 89.99621955774232,
        "Satellite Name": "Test1 416",
        "Satellite Number": 416,
        "Semi-Major Axis(m)": 6980739.136638005,
        "Time(s)": 90
    },
    {
        "Altitude(m)": 610618.5258174506,
        "Argument of Periapsis(deg)": 0.0010418945913296407,
        "Eccentricity": 0.0,
        "Inclination(deg)": 60.0,
        "Latitude(deg)": -22.958010568754826,
        "Longitude(deg)": -24.469173660994787,
        "Mean Anomaly(deg)": -26.5262385453817,
        "RAAN(deg)": 89.99579950860257,
        "Satellite Name": "Test1 416",
        "Satellite Number": 416,
        "Semi-Major Axis(m)": 6980739.136638005,
        "Time(s)": 100
    },
    {
        "Altitude(m)": 610437.7142525596,
        "Argument of Periapsis(deg)": 0.0011460840504626045,
        "Eccentricity": 0.0,
        "Inclination(deg)": 60.0,
        "Latitude(deg)": -22.434825558192205,
        "Longitude(deg)": -24.14775886856412,
        "Mean Anomaly(deg)": -25.90613239991991,
        "RAAN(deg)": 89.99537945946282,
        "Satellite Name": "Test1 416",
        "Satellite Number": 416,
        "Semi-Major Axis(m)": 6980739.136638005,
        "Time(s)": 110
    },
    {
        "Altitude(m)": 610258.5365563165,
        "Argument of Periapsis(deg)": 0.0012502735095955685,
        "Eccentricity": 0.0,
        "Inclination(deg)": 60.0,
        "Latitude(deg)": -21.91078028565192,
        "Longitude(deg)": -23.829042065611983,
        "Mean Anomaly(deg)": -25.286026254458015,
        "RAAN(deg)": 89.99495941032309,
        "Satellite Name": "Test1 416",
        "Satellite Number": 416,
        "Semi-Major Axis(m)": 6980739.136638005,
        "Time(s)": 120
    },
    {
        "Altitude(m)": 610081.0549138257,
        "Argument of Periapsis(deg)": 0.0013544629687285324,
        "Eccentricity": 0.0,
        "Inclination(deg)": 60.0,
        "Latitude(deg)": -21.385901906538113,
        "Longitude(deg)": -23.512937777768528,
        "Mean Anomaly(deg)": -24.66592010899623,
        "RAAN(deg)": 89.99453936118334,
        "Satellite Name": "Test1 416",
        "Satellite Number": 416,
        "Semi-Major Axis(m)": 6980739.136638005,
        "Time(s)": 130
    },
    {
        "Altitude(m)": 609905.3306130777,
        "Argument of Periapsis(deg)": 0.0014586524278614966,
        "Eccentricity": 0.0,
        "Inclination(deg)": 60.0,
        "Latitude(deg)": -20.8602170056732,
        "Longitude(deg)": -23.199362657706068,
        "Mean Anomaly(deg)": -24.04581396353439,
        "RAAN(deg)": 89.9941193120436,
        "Satellite Name": "Test1 416",
        "Satellite Number": 416,
        "Semi-Major Axis(m)": 6980739.136638005,
        "Time(s)": 140
    },
    {
        "Altitude(m)": 609731.4240179643,
        "Argument of Periapsis(deg)": 0.0015628418869944607,
        "Eccentricity": 0.0,
        "Inclination(deg)": 60.0,
        "Latitude(deg)": -20.333751620287632,
        "Longitude(deg)": -22.888234926238844,
        "Mean Anomaly(deg)": -23.425707818072542,
        "RAAN(deg)": 89.99369926290386,
        "Satellite Name": "Test1 416",
        "Satellite Number": 416,
        "Semi-Major Axis(m)": 6980739.136638005,
        "Time(s)": 150
    },
    {
        "Altitude(m)": 609559.3945417011,
        "Argument of Periapsis(deg)": 0.0016670313461274247,
        "Eccentricity": 0.0,
        "Inclination(deg)": 60.0,
        "Latitude(deg)": -19.806531262252683,
        "Longitude(deg)": -22.57947381442985,
        "Mean Anomaly(deg)": -22.805601672610702,
        "RAAN(deg)": 89.99327921376411,
        "Satellite Name": "Test1 416",
        "Satellite Number": 416,
        "Semi-Major Axis(m)": 6980739.136638005,
        "Time(s)": 160
    },
    {
        "Altitude(m)": 609389.30062073,
        "Argument of Periapsis(deg)": 0.0017712208052603888,
        "Eccentricity": 0.0,
        "Inclination(deg)": 60.0,
        "Latitude(deg)": -19.278580939589634,
        "Longitude(deg)": -22.273000519574666,
        "Mean Anomaly(deg)": -22.185495527148916,
        "RAAN(deg)": 89.99285916462438,
        "Satellite Name": "Test1 416",
        "Satellite Number": 416,
        "Semi-Major Axis(m)": 6980739.136638005,
        "Time(s)": 170
    },
    {
        "Altitude(m)": 609221.1996890429,
        "Argument of Periapsis(deg)": 0.001875410264393353,
        "Eccentricity": 0.0,
        "Inclination(deg)": 60.0,
        "Latitude(deg)": -18.749925177279856,
        "Longitude(deg)": -21.96873764930611,
        "Mean Anomaly(deg)": -21.565389381687076,
        "RAAN(deg)": 89.99243911548463,
        "Satellite Name": "Test1 416",
        "Satellite Number": 416,
        "Semi-Major Axis(m)": 6980739.136638005,
        "Time(s)": 180
    },
    {
        "Altitude(m)": 609055.1481530069,
        "Argument of Periapsis(deg)": 0.0019795997235263173,
        "Eccentricity": 0.0,
        "Inclination(deg)": 60.0,
        "Latitude(deg)": -18.220588037407072,
        "Longitude(deg)": -21.666608666682738,
        "Mean Anomaly(deg)": -20.945283236225286,
        "RAAN(deg)": 89.9920190663449,
        "Satellite Name": "Test1 416",
        "Satellite Number": 416,
        "Semi-Major Axis(m)": 6980739.136638005,
        "Time(s)": 190
    }
]